STARLINK-33964          
1 64118U 25110Y   26068.29504087  .00030038  00000+0  10226-2 0  9992
2 64118  53.1608  28.4792 0001047  79.4567 280.6551 15.30188737 45826
2025-313BE              
1 67482U 25313BE  26068.69721505  .00077178  00000+0  26504-2 0  9996
2 67482  97.3989 145.3568 0007208 335.3714  24.7181 15.29801687  7972
